OBJECT_NAME,OBJECT_ID,EPOCH,MEAN_MOTION,ECCENTRICITY,INCLINATION,RA_OF_ASC_NODE,ARG_OF_PERICENTER,MEAN_ANOMALY,EPHEMERIS_TYPE,CLASSIFICATION_TYPE,NORAD_CAT_ID,ELEMENT_SET_NO,REV_AT_EPOCH,BSTAR,MEAN_MOTION_DOT,MEAN_MOTION_DDOT
ONEWEB-0523,2022-138AE,2026-07-12T04:20:01.246272,13.20772709,.0002355,87.9187,269.4615,81.1786,278.9614,0,U,54141,999,18260,.84651E-4,.47E-6,0
ONEWEB-0524,2022-138AF,2026-07-12T00:27:18.226080,13.20772019,.0002952,87.9192,269.4896,93.7155,266.4316,0,U,54142,999,18258,.14896E-3,.74E-6,0
ONEWEB-0525,2022-138AG,2026-07-11T19:14:42.105408,13.19726048,.00021882,87.9191,300.0642,111.3801,248.7565,0,U,54143,999,18007,-.18033603E-3,-.59E-6,0
ONEWEB-0526,2022-138AH,2026-07-12T05:08:21.145632,13.19723946,.0002123,87.9193,299.9833,103.9700,256.1669,0,U,54144,999,18010,-.79042E-6,.13E-6,0
ONEWEB-0529,2022-138AJ,2026-07-11T20:07:02.579520,13.19725946,.00019614,87.9180,300.0665,105.9444,254.1905,0,U,54145,999,18007,-.13763831E-3,-.42E-6,0
ONEWEB-0531,2022-138AK,2026-07-12T03:46:04.737792,13.20773493,.0002696,87.9186,269.4593,82.5976,277.5464,0,U,54146,999,18260,.21085E-3,.99E-6,0
ONEWEB-0535,2022-138AL,2026-07-11T19:05:36.492864,13.19726559,.00020306,87.9194,300.0598,91.4118,268.7247,0,U,54147,999,18008,.97100319E-4,.52E-6,0
ONEWEB-0536,2022-138AM,2026-07-12T05:15:46.599840,13.20772759,.0002806,87.9174,269.4670,85.1060,275.0394,0,U,54148,999,18260,-.32876E-4,0,0
ONEWEB-0527,2022-166A,2026-07-12T01:56:17.896416,13.21827306,.0002123,87.9236,239.0426,98.0555,262.0820,0,U,54642,999,17482,.1677E-3,.82E-6,0
ONEWEB-0528,2022-166B,2026-07-12T01:57:30.386016,13.21825760,.0002139,87.9240,239.0451,103.1908,256.9464,0,U,54643,999,17483,.18219E-3,.88E-6,0
ONEWEB-0539,2022-166C,2026-07-11T15:57:58.122720,13.21822981,.00019348,87.9242,239.1022,94.9071,265.2283,0,U,54644,999,17477,-.38082193E-3,-.144E-5,0
ONEWEB-0540,2022-166D,2026-07-12T01:12:52.607232,13.21824417,.0001968,87.9230,239.0540,93.8806,266.2553,0,U,54645,999,17481,.24669E-3,.115E-5,0
ONEWEB-0542,2022-166E,2026-07-12T01:17:32.666784,13.21825714,.0001738,87.9239,239.0237,91.7426,268.3907,0,U,54646,999,17482,.12041E-4,.18E-6,0
ONEWEB-0545,2022-166F,2026-07-11T15:21:40.192992,13.21818959,.00017361,87.9240,239.1158,91.3130,268.8203,0,U,54647,999,17473,.74617517E-3,.321E-5,0
ONEWEB-0580,2022-166G,2026-07-11T14:45:17.492256,13.21823674,.0001859,87.9235,239.1201,85.6869,274.4477,0,U,54648,999,17477,.91336532E-4,.51E-6,0
ONEWEB-0582,2022-166H,2026-07-11T15:45:52.766208,13.21827274,.00017711,87.9239,239.1035,92.0749,268.0588,0,U,54649,999,17475,-.21652574E-3,-.76E-6,0
ONEWEB-0583,2022-166J,2026-07-11T16:02:50.568576,13.21825611,.00019477,87.9230,239.1260,93.8795,266.2561,0,U,54650,999,17476,-.72508426E-4,-.17E-6,0
ONEWEB-0584,2022-166K,2026-07-12T01:36:54.319104,13.21824802,.0002031,87.9235,239.0309,93.7999,266.3367,0,U,54651,999,17480,.11845E-3,.62E-6,0
ONEWEB-0585,2022-166L,2026-07-11T15:16:46.686144,13.21828092,.00021278,87.9240,239.1029,107.1055,253.0312,0,U,54652,999,17475,.94614857E-4,.52E-6,0
ONEWEB-0586,2022-166M,2026-07-11T15:36:10.453536,13.21835323,.00019372,87.9239,239.1263,97.3782,262.7572,0,U,54653,999,17475,.26564657E-2,.111E-4,0
ONEWEB-0587,2022-166N,2026-07-12T02:44:45.076704,13.21825766,.0002372,87.9243,239.0108,102.7643,257.3756,0,U,54654,999,17497,-.2035E-4,.5E-7,0
ONEWEB-0589,2022-166P,2026-07-11T15:31:21.258048,13.21825515,.00015246,87.9234,239.1128,74.3569,285.7733,0,U,54655,999,17477,.1275265E-5,.14E-6,0
ONEWEB-0590,2022-166Q,2026-07-11T14:18:27.921600,13.21825647,.00023626,87.9242,239.1159,85.6651,274.4753,0,U,54656,999,17475,-.10391704E-3,-.3E-6,0
ONEWEB-0591,2022-166R,2026-07-12T01:29:37.460832,13.21827953,.0002063,87.9236,239.0351,93.9069,266.2301,0,U,54657,999,17484,-.81195E-5,.1E-6,0
ONEWEB-0592,2022-166S,2026-07-12T03:23:28.713120,13.21823702,.0002022,87.9242,238.9999,95.8651,264.2714,0,U,54658,999,17473,.10805E-3,.58E-6,0
ONEWEB-0593,2022-166T,2026-07-12T02:05:58.976160,13.21825834,.0001899,87.9237,239.0206,97.3669,262.7681,0,U,54659,999,17483,.11447E-3,.6E-6,0
ONEWEB-0594,2022-166U,2026-07-11T13:52:01.045632,13.21824431,.00021689,87.9236,239.1381,100.7899,259.3479,0,U,54660,999,17478,-.12383906E-3,-.38E-6,0
ONEWEB-0595,2022-166V,2026-07-12T02:01:08.748192,13.21825702,.0002292,87.9240,239.0208,97.7845,262.3549,0,U,54661,999,17482,.12128E-3,.63E-6,0
ONEWEB-0596,2022-166W,2026-07-12T03:13:47.076960,13.21823974,.0002135,87.9238,239.0192,97.1243,263.0134,0,U,54662,999,17483,.52294E-4,.35E-6,0
ONEWEB-0597,2022-166X,2026-07-12T00:58:08.308416,13.21823636,.0001933,87.9234,239.0413,94.0742,266.0613,0,U,54663,999,17482,-.7936E-4,-.2E-6,0
