ONEWEB-0523             
1 54141U 22138AE  26193.18056998  .00000047  00000+0  84651-4 0  9996
2 54141  87.9187 269.4615 0002355  81.1786 278.9614 13.20772709182608
ONEWEB-0524             
1 54142U 22138AF  26193.01896095  .00000074  00000+0  14896-3 0  9992
2 54142  87.9192 269.4896 0002952  93.7155 266.4316 13.20772019182580
ONEWEB-0525             
1 54143U 22138AG  26192.80187622 -.00000059  00000+0 -18034-3 0  9991
2 54143  87.9191 300.0642 0002188 111.3801 248.7565 13.19726048180077
ONEWEB-0526             
1 54144U 22138AH  26193.21413363  .00000013  00000+0 -79042-6 0  9990
2 54144  87.9193 299.9833 0002123 103.9700 256.1669 13.19723946180108
ONEWEB-0529             
1 54145U 22138AJ  26192.83822430 -.00000042  00000+0 -13764-3 0  9996
2 54145  87.9180 300.0665 0001961 105.9444 254.1905 13.19725946180077
ONEWEB-0531             
1 54146U 22138AK  26193.15699928  .00000099  00000+0  21085-3 0  9992
2 54146  87.9186 269.4593 0002696  82.5976 277.5464 13.20773493182600
ONEWEB-0535             
1 54147U 22138AL  26192.79556126  .00000052  00000+0  97100-4 0  9995
2 54147  87.9194 300.0598 0002030  91.4118 268.7247 13.19726559180086
ONEWEB-0536             
1 54148U 22138AM  26193.21928935  .00000000  00000+0 -32876-4 0  9998
2 54148  87.9174 269.4670 0002806  85.1060 275.0394 13.20772759182600
ONEWEB-0527             
1 54642U 22166A   26193.08076269  .00000082  00000+0  16770-3 0  9990
2 54642  87.9236 239.0426 0002123  98.0555 262.0820 13.21827306174829
ONEWEB-0528             
1 54643U 22166B   26193.08160169  .00000088  00000+0  18219-3 0  9990
2 54643  87.9240 239.0451 0002139 103.1908 256.9464 13.21825760174839
ONEWEB-0539             
1 54644U 22166C   26192.66525605 -.00000144  00000+0 -38082-3 0  9999
2 54644  87.9242 239.1022 0001934  94.9071 265.2283 13.21822981174774
ONEWEB-0540             
1 54645U 22166D   26193.05060888  .00000115  00000+0  24669-3 0  9993
2 54645  87.9230 239.0540 0001968  93.8806 266.2553 13.21824417174819
ONEWEB-0542             
1 54646U 22166E   26193.05385031  .00000018  00000+0  12041-4 0  9998
2 54646  87.9239 239.0237 0001738  91.7426 268.3907 13.21825714174820
ONEWEB-0545             
1 54647U 22166F   26192.64004853  .00000321  00000+0  74618-3 0  9997
2 54647  87.9240 239.1158 0001736  91.3130 268.8203 13.21818959174739
ONEWEB-0580             
1 54648U 22166G   26192.61478579  .00000051  00000+0  91337-4 0  9993
2 54648  87.9235 239.1201 0001859  85.6869 274.4477 13.21823674174774
ONEWEB-0582             
1 54649U 22166H   26192.65686072 -.00000076  00000+0 -21653-3 0  9999
2 54649  87.9239 239.1035 0001771  92.0749 268.0588 13.21827274174756
ONEWEB-0583             
1 54650U 22166J   26192.66864084 -.00000017  00000+0 -72508-4 0  9994
2 54650  87.9230 239.1260 0001947  93.8795 266.2561 13.21825611174769
ONEWEB-0584             
1 54651U 22166K   26193.06729536  .00000062  00000+0  11845-3 0  9996
2 54651  87.9235 239.0309 0002031  93.7999 266.3367 13.21824802174809
ONEWEB-0585             
1 54652U 22166L   26192.63665146  .00000052  00000+0  94615-4 0  9991
2 54652  87.9240 239.1029 0002127 107.1055 253.0312 13.21828092174757
ONEWEB-0586             
1 54653U 22166M   26192.65012099  .00001110  00000+0  26565-2 0  9990
2 54653  87.9239 239.1263 0001937  97.3782 262.7572 13.21835323174751
ONEWEB-0587             
1 54654U 22166N   26193.11441061  .00000005  00000+0 -20350-4 0  9999
2 54654  87.9243 239.0108 0002372 102.7643 257.3756 13.21825766174973
ONEWEB-0589             
1 54655U 22166P   26192.64677382  .00000014  00000+0  12753-5 0  9992
2 54655  87.9234 239.1128 0001524  74.3569 285.7733 13.21825515174776
ONEWEB-0590             
1 54656U 22166Q   26192.59615650 -.00000030  00000+0 -10392-3 0  9992
2 54656  87.9242 239.1159 0002362  85.6651 274.4753 13.21825647174759
ONEWEB-0591             
1 54657U 22166R   26193.06223913  .00000010  00000+0 -81195-5 0  9991
2 54657  87.9236 239.0351 0002063  93.9069 266.2301 13.21827953174849
ONEWEB-0592             
1 54658U 22166S   26193.14130455  .00000058  00000+0  10805-3 0  9998
2 54658  87.9242 238.9999 0002022  95.8651 264.2714 13.21823702174738
ONEWEB-0593             
1 54659U 22166T   26193.08748815  .00000060  00000+0  11447-3 0  9993
2 54659  87.9237 239.0206 0001899  97.3669 262.7681 13.21825834174838
ONEWEB-0594             
1 54660U 22166U   26192.57778988 -.00000038  00000+0 -12384-3 0  9990
2 54660  87.9236 239.1381 0002168 100.7899 259.3479 13.21824431174781
ONEWEB-0595             
1 54661U 22166V   26193.08412903  .00000063  00000+0  12128-3 0  9992
2 54661  87.9240 239.0208 0002292  97.7845 262.3549 13.21825702174827
ONEWEB-0596             
1 54662U 22166W   26193.13457265  .00000035  00000+0  52294-4 0  9997
2 54662  87.9238 239.0192 0002135  97.1243 263.0134 13.21823974174837
ONEWEB-0597             
1 54663U 22166X   26193.04037394 -.00000020  00000+0 -79360-4 0  9994
2 54663  87.9234 239.0413 0001933  94.0742 266.0613 13.21823636174824
